ONEWEB-0545             
1 54647U 22166F   25057.51408019  .00000013  00000+0 -16615-6 0  9999
2 54647  87.9346 338.8081 0001602  99.2554 260.8761 13.21823502108667
ONEWEB-0580             
1 54648U 22166G   25057.48727886  .00000091  00000+0  18958-3 0  9996
2 54648  87.9353 338.8012 0001398  86.8038 273.3256 13.21824027108707
ONEWEB-0582             
1 54649U 22166H   25057.75694320 -.00000016  00000+0 -71118-4 0  9990
2 54649  87.9333 338.7736 0001253  89.7272 270.4006 13.21823769108714
ONEWEB-0583             
1 54650U 22166J   25057.76798623  .00000011  00000+0 -45946-5 0  9999
2 54650  87.9348 338.7708 0001747  83.1110 277.0223 13.21824394108728
ONEWEB-0584             
1 54651U 22166K   25057.71278529 -.00000181  00000+0 -47065-3 0  9994
2 54651  87.9351 338.7606 0001324  81.4536 278.6748 13.21824953108702
ONEWEB-0585             
1 54652U 22166L   25057.51092339  .00000071  00000+0  13935-3 0  9991
2 54652  87.9345 338.7997 0001838  75.5915 284.5423 13.21823237108681
ONEWEB-0586             
1 54653U 22166M   25057.75064788 -.00000017  00000+0 -72617-4 0  9990
2 54653  87.9349 338.7664 0001626  83.4132 276.7187 13.21825275108719
ONEWEB-0587             
1 54654U 22166N   25057.76010456  .00000003  00000+0 -23703-4 0  9991
2 54654  87.9348 338.7155 0001951  74.0212 286.1136 13.21824521108879
